[
    {
        "Altitude(m)": 571642.829354638,
        "Argument of Periapsis(deg)": 0.026491964442854003,
        "Eccentricity": 0.0,
        "Inclination(deg)": 53.0,
        "Latitude(deg)": -52.62910013009474,
        "Longitude(deg)": -72.07245948040303,
        "Mean Anomaly(deg)": -83.26992852968965,
        "RAAN(deg)": 109.96057347411207,
        "Satellite Name": "Starlink Shell 1 498",
        "Satellite Number": 498,
        "Semi-Major Axis(m)": 6931778.249405717,
        "Time(s)": 760
    },
    {
        "Altitude(m)": 571603.8423337631,
        "Argument of Periapsis(deg)": 0.02684054292236524,
        "Eccentricity": 0.0,
        "Inclination(deg)": 53.0,
        "Latitude(deg)": -52.52859911441357,
        "Longitude(deg)": -71.10189351095421,
        "Mean Anomaly(deg)": -82.64309732613289,
        "RAAN(deg)": 109.96005470403459,
        "Satellite Name": "Starlink Shell 1 498",
        "Satellite Number": 498,
        "Semi-Major Axis(m)": 6931778.249405717,
        "Time(s)": 770
    },
    {
        "Altitude(m)": 571561.4701068597,
        "Argument of Periapsis(deg)": 0.027189121401876473,
        "Eccentricity": 0.0,
        "Inclination(deg)": 53.0,
        "Latitude(deg)": -52.419490613037794,
        "Longitude(deg)": -70.13612474934033,
        "Mean Anomaly(deg)": -82.01626612257623,
        "RAAN(deg)": 109.95953593395711,
        "Satellite Name": "Starlink Shell 1 498",
        "Satellite Number": 498,
        "Semi-Major Axis(m)": 6931778.249405717,
        "Time(s)": 780
    },
    {
        "Altitude(m)": 571515.7295538852,
        "Argument of Periapsis(deg)": 0.02753769988138771,
        "Eccentricity": 0.0,
        "Inclination(deg)": 53.0,
        "Latitude(deg)": -52.30184996535332,
        "Longitude(deg)": -69.17549913727471,
        "Mean Anomaly(deg)": -81.38943491901946,
        "RAAN(deg)": 109.95901716387965,
        "Satellite Name": "Starlink Shell 1 498",
        "Satellite Number": 498,
        "Semi-Major Axis(m)": 6931778.249405717,
        "Time(s)": 790
    },
    {
        "Altitude(m)": 571466.6388957424,
        "Argument of Periapsis(deg)": 0.02788627836089895,
        "Eccentricity": 0.0,
        "Inclination(deg)": 53.0,
        "Latitude(deg)": -52.17575743547424,
        "Longitude(deg)": -68.22034944234765,
        "Mean Anomaly(deg)": -80.76260371546276,
        "RAAN(deg)": 109.95849839380219,
        "Satellite Name": "Starlink Shell 1 498",
        "Satellite Number": 498,
        "Semi-Major Axis(m)": 6931778.249405717,
        "Time(s)": 800
    },
    {
        "Altitude(m)": 571414.2176863776,
        "Argument of Periapsis(deg)": 0.02823485684041019,
        "Eccentricity": 0.0,
        "Inclination(deg)": 53.0,
        "Latitude(deg)": -52.04129795752093,
        "Longitude(deg)": -67.270994143919,
        "Mean Anomaly(deg)": -80.13577251190605,
        "RAAN(deg)": 109.95797962372471,
        "Satellite Name": "Starlink Shell 1 498",
        "Satellite Number": 498,
        "Semi-Major Axis(m)": 6931778.249405717,
        "Time(s)": 810
    },
    {
        "Altitude(m)": 571358.4868043266,
        "Argument of Periapsis(deg)": 0.028583435319921423,
        "Eccentricity": 0.0,
        "Inclination(deg)": 53.0,
        "Latitude(deg)": -51.89856087222639,
        "Longitude(deg)": -66.32773640515818,
        "Mean Anomaly(deg)": -79.5089413083493,
        "RAAN(deg)": 109.95746085364723,
        "Satellite Name": "Starlink Shell 1 498",
        "Satellite Number": 498,
        "Semi-Major Axis(m)": 6931778.249405717,
        "Time(s)": 820
    },
    {
        "Altitude(m)": 571299.4684436693,
        "Argument of Periapsis(deg)": 0.028932013799432665,
        "Eccentricity": 0.0,
        "Inclination(deg)": 53.0,
        "Latitude(deg)": -51.74763965649076,
        "Longitude(deg)": -65.39086464304371,
        "Mean Anomaly(deg)": -78.88211010479264,
        "RAAN(deg)": 109.95694208356976,
        "Satellite Name": "Starlink Shell 1 498",
        "Satellite Number": 498,
        "Semi-Major Axis(m)": 6931778.249405717,
        "Time(s)": 830
    },
    {
        "Altitude(m)": 571237.1861044173,
        "Argument of Periapsis(deg)": 0.029280592278943897,
        "Eccentricity": 0.0,
        "Inclination(deg)": 53.0,
        "Latitude(deg)": -51.58863164768833,
        "Longitude(deg)": -64.46065167049414,
        "Mean Anomaly(deg)": -78.25527890123593,
        "RAAN(deg)": 109.95642331349228,
        "Satellite Name": "Starlink Shell 1 498",
        "Satellite Number": 498,
        "Semi-Major Axis(m)": 6931778.249405717,
        "Time(s)": 840
    },
    {
        "Altitude(m)": 571171.6645823382,
        "Argument of Periapsis(deg)": 0.029629170758455132,
        "Eccentricity": 0.0,
        "Inclination(deg)": 53.0,
        "Latitude(deg)": -51.42163776442862,
        "Longitude(deg)": -63.537353922072214,
        "Mean Anomaly(deg)": -77.62844769767918,
        "RAAN(deg)": 109.95590454341482,
        "Satellite Name": "Starlink Shell 1 498",
        "Satellite Number": 498,
        "Semi-Major Axis(m)": 6931778.249405717,
        "Time(s)": 850
    },
    {
        "Altitude(m)": 571102.9299581831,
        "Argument of Periapsis(deg)": 0.02997774923796637,
        "Eccentricity": 0.0,
        "Inclination(deg)": 53.0,
        "Latitude(deg)": -51.24676222542565,
        "Longitude(deg)": -62.62121244216543,
        "Mean Anomaly(deg)": -77.0016164941225,
        "RAAN(deg)": 109.95538577333735,
        "Satellite Name": "Starlink Shell 1 498",
        "Satellite Number": 498,
        "Semi-Major Axis(m)": 6931778.249405717,
        "Time(s)": 860
    },
    {
        "Altitude(m)": 571031.0095864143,
        "Argument of Periapsis(deg)": 0.030326327717477602,
        "Eccentricity": 0.0,
        "Inclination(deg)": 53.0,
        "Latitude(deg)": -51.064112268057336,
        "Longitude(deg)": -61.712451430496,
        "Mean Anomaly(deg)": -76.37478529056575,
        "RAAN(deg)": 109.95486700325988,
        "Satellite Name": "Starlink Shell 1 498",
        "Satellite Number": 498,
        "Semi-Major Axis(m)": 6931778.249405717,
        "Time(s)": 870
    },
    {
        "Altitude(m)": 570955.9320833128,
        "Argument of Periapsis(deg)": 0.030674906196988847,
        "Eccentricity": 0.0,
        "Inclination(deg)": 53.0,
        "Latitude(deg)": -50.87379786811928,
        "Longitude(deg)": -60.81127938460204,
        "Mean Anomaly(deg)": -75.74795408700905,
        "RAAN(deg)": 109.9543482331824,
        "Satellite Name": "Starlink Shell 1 498",
        "Satellite Number": 498,
        "Semi-Major Axis(m)": 6931778.249405717,
        "Time(s)": 880
    },
    {
        "Altitude(m)": 570877.7273145643,
        "Argument of Periapsis(deg)": 0.031023484676500086,
        "Eccentricity": 0.0,
        "Inclination(deg)": 53.0,
        "Latitude(deg)": -50.675931462178646,
        "Longitude(deg)": -59.917888633078306,
        "Mean Anomaly(deg)": -75.12112288345234,
        "RAAN(deg)": 109.95382946310492,
        "Satellite Name": "Starlink Shell 1 498",
        "Satellite Number": 498,
        "Semi-Major Axis(m)": 6931778.249405717,
        "Time(s)": 890
    },
    {
        "Altitude(m)": 570796.4263823038,
        "Argument of Periapsis(deg)": 0.03137206315601132,
        "Eccentricity": 0.0,
        "Inclination(deg)": 53.0,
        "Latitude(deg)": -50.47062767383657,
        "Longitude(deg)": -59.03245493636874,
        "Mean Anomaly(deg)": -74.49429167989561,
        "RAAN(deg)": 109.95331069302745,
        "Satellite Name": "Starlink Shell 1 498",
        "Satellite Number": 498,
        "Semi-Major Axis(m)": 6931778.249405717,
        "Time(s)": 900
    },
    {
        "Altitude(m)": 570712.0616116017,
        "Argument of Periapsis(deg)": 0.03172064163552255,
        "Eccentricity": 0.0,
        "Inclination(deg)": 53.0,
        "Latitude(deg)": -50.258003045099365,
        "Longitude(deg)": -58.155138663468975,
        "Mean Anomaly(deg)": -73.86746047633892,
        "RAAN(deg)": 109.95279192294998,
        "Satellite Name": "Starlink Shell 1 498",
        "Satellite Number": 498,
        "Semi-Major Axis(m)": 6931778.249405717,
        "Time(s)": 910
    },
    {
        "Altitude(m)": 570624.6665364197,
        "Argument of Periapsis(deg)": 0.0320692201150338,
        "Eccentricity": 0.0,
        "Inclination(deg)": 53.0,
        "Latitude(deg)": -50.03817577394248,
        "Longitude(deg)": -57.28608451401349,
        "Mean Anomaly(deg)": -73.24062927278214,
        "RAAN(deg)": 109.95227315287252,
        "Satellite Name": "Starlink Shell 1 498",
        "Satellite Number": 498,
        "Semi-Major Axis(m)": 6931778.249405717,
        "Time(s)": 920
    },
    {
        "Altitude(m)": 570534.2758850373,
        "Argument of Periapsis(deg)": 0.032417798594545036,
        "Eccentricity": 0.0,
        "Inclination(deg)": 53.0,
        "Latitude(deg)": -49.811265459040904,
        "Longitude(deg)": -56.42542129367667,
        "Mean Anomaly(deg)": -72.61379806922548,
        "RAAN(deg)": 109.95175438279504,
        "Satellite Name": "Starlink Shell 1 498",
        "Satellite Number": 498,
        "Semi-Major Axis(m)": 6931778.249405717,
        "Time(s)": 930
    },
    {
        "Altitude(m)": 570440.9255649408,
        "Argument of Periapsis(deg)": 0.03276637707405627,
        "Eccentricity": 0.0,
        "Inclination(deg)": 53.0,
        "Latitude(deg)": -49.577392852521506,
        "Longitude(deg)": -55.57326325070302,
        "Mean Anomaly(deg)": -71.98696686566873,
        "RAAN(deg)": 109.95123561271757,
        "Satellite Name": "Starlink Shell 1 498",
        "Satellite Number": 498,
        "Semi-Major Axis(m)": 6931778.249405717,
        "Time(s)": 940
    }
]